{
"type": "FeatureCollection",
"name": "oopt_pnt",
"crs": { "type": "name", "properties": { "name": "urn:ogc:def:crs:OGC:1.3:CRS84" } },
"features": [
{ "type": "Feature", "properties": { "nid": 43441.0, "title": "Андом-гора, Андомский геологический разрез (Андомская гора)", "sig": "federal", "start_date": "1978-08-16", "created_at": "2024-10-10", "updated_at": "2026-06-24", "area": 650.0, "subj_title": "Вологодская область", "federal_ti": "Северо-Западный федеральный округ", "agency_tit": "Министерство природных ресурсов и экологии Российской Федерации", "management": null, "category_t": "памятник природы", "status_tit": "действующий" }, "geometry": { "type": "MultiPoint", "coordinates": [ [ 36.45, 61.23 ] ] } },
{ "type": "Feature", "properties": { "nid": 13350.0, "title": "Еюгский бор", "sig": "regional", "start_date": "2012-09-13", "created_at": "2024-10-10", "updated_at": "2026-06-24", "area": 1248.0, "subj_title": "Вологодская область", "federal_ti": "Северо-Западный федеральный округ", "agency_tit": null, "management": null, "category_t": "государственный природный заказник", "status_tit": "действующий" }, "geometry": { "type": "MultiPoint", "coordinates": [ [ 36.673490132812603, 59.773507645134828 ] ] } },
{ "type": "Feature", "properties": { "nid": 48053.0, "title": "Ивоненский бор", "sig": "regional", "start_date": "1992-03-25", "created_at": "2024-10-10", "updated_at": "2026-06-24", "area": 3999.0, "subj_title": "Вологодская область", "federal_ti": "Северо-Западный федеральный округ", "agency_tit": null, "management": null, "category_t": "государственный природный заказник", "status_tit": "действующий" }, "geometry": { "type": "MultiPoint", "coordinates": [ [ 42.542973879945336, 60.746578040830862 ] ] } }
]
}
